ORBCOMM-X               
1 21576U 91050C   25024.16655920  .00000909  00000+0  28407-3 0  9994
2 21576  98.3633  93.5959 0002537 257.6812 102.4095 14.43052850761561
ORBCOMM FM01            
1 23545U 95017A   25024.48639349  .00015972  00000+0  17828-2 0  9991
2 23545  69.9651  71.7408 0004762 239.1345 120.9339 14.87060304591476
ORBCOMM FM02            
1 23546U 95017B   25024.48428382  .00017936  00000+0  19877-2 0  9993
2 23546  69.9667  91.4318 0005473 224.7082 135.3630 14.87314835591061
ORBCOMM FM08            
1 25112U 97084A   25024.14368443  .00004865  00000+0  14232-2 0  9991
2 25112  45.0151 338.9232 0006552 255.8305 104.1819 14.44914133420706
ORBCOMM FM10            
1 25113U 97084B   25023.89687090  .00005039  00000+0  14786-2 0  9993
2 25113  45.0162 342.2427 0003821 227.1318 132.9212 14.44728376595649
ORBCOMM FM11            
1 25114U 97084C   25024.36125684  .00004492  00000+0  13286-2 0  9999
2 25114  45.0148 340.3977 0004724 226.7377 133.3080 14.44508386420705
ORBCOMM FM12            
1 25115U 97084D   25023.91057215  .00004456  00000+0  13184-2 0  9991
2 25115  45.0155 342.3177 0003710 228.3182 131.7351 14.44504961420409
ORBCOMM FM09            
1 25116U 97084E   25024.27741909  .00004025  00000+0  11973-2 0  9998
2 25116  45.0160 341.3630 0004571 208.0214 152.0391 14.44408521420692
